NORAD_CAT_ID,OBJECT_NAME,OBJECT_TYPE,EPOCH,MEAN_MOTION,ECCENTRICITY,INCLINATION,RA_OF_ASC_NODE,ARG_OF_PERICENTER,MEAN_ANOMALY,BSTAR,MEAN_MOTION_DOT,MEAN_MOTION_DDOT,TLE_LINE0,TLE_LINE1,TLE_LINE2,SEMIMAJOR_AXIS,PERIOD,APOGEE,PERIGEE,DECAYED
53967.0,STARLINK-4634,PAYLOAD,2023-01-20 06:33:48,15.08819716,0.0001978,53.2162,321.6392,76.8171,283.3042,-0.00032837,-5.508e-05,0.0,0 STARLINK-4634,1 53967U 22125D   23020.27348269 -.00005508  00000-0 -32837-3 0  9996,2 53967  53.2162 321.6392 0001978  76.8171 283.3042 15.08819716 16625,6917.941999999999,95.439,541.1759999999999,538.439,0.0
53967.0,STARLINK-4634,PAYLOAD,2023-01-20 12:55:21,15.08832993,0.0001149,53.217,320.4539,70.9144,289.1972,-0.0001036999999999,-1.937e-05,0.0,0 STARLINK-4634,1 53967U 22125D   23020.53843957 -.00001937  00000-0 -10370-3 0  9999,2 53967  53.2170 320.4539 0001149  70.9144 289.1972 15.08832993 16661,6917.901999999999,95.438,540.562,538.972,0.0
53967.0,STARLINK-4634,PAYLOAD,2023-01-21 03:13:49,15.08857518,0.0001203,53.2168,317.7779,66.7461,293.3658,0.0013561,0.00021371,0.0,0 STARLINK-4634,1 53967U 22125D   23021.13460003  .00021371  00000-0  13561-2 0  9999,2 53967  53.2168 317.7779 0001203  66.7461 293.3658 15.08857518 16757,6917.826999999999,95.436,540.524,538.86,0.0
53967.0,STARLINK-4634,PAYLOAD,2023-01-21 15:56:54,15.08847928,0.000129,53.2165,315.3984,83.0271,277.0868,0.00010907,1.449e-05,0.0,0 STARLINK-4634,1 53967U 22125D   23021.66451754  .00001449  00000-0  10907-3 0  9996,2 53967  53.2165 315.3984 0001290  83.0271 277.0868 15.08847928 16838,6917.856,95.437,540.614,538.8290000000001,0.0
53967.0,STARLINK-4634,PAYLOAD,2023-01-22 04:39:58,15.08876917,0.0001036999999999,53.2175,313.0181,95.3257,264.7854,0.0010264,0.00016101,0.0,0 STARLINK-4634,1 53967U 22125D   23022.19442642  .00016101  00000-0  10264-2 0  9997,2 53967  53.2175 313.0181 0001037  95.3257 264.7854 15.08876917 16919,6917.768,95.435,540.35,538.915,0.0
53967.0,STARLINK-4634,PAYLOAD,2023-01-22 18:58:27,15.08844571,0.0002846,53.2166,310.3444,73.08,287.0503,0.0016082999999999,0.00025405,0.0,0 STARLINK-4634,1 53967U 22125D   23022.79060106  .00025405  00000-0  16083-2 0  9996,2 53967  53.2166 310.3444 0002846  73.0800 287.0503 15.08844571 17008,6917.866,95.437,541.7,537.763,0.0
53967.0,STARLINK-4634,PAYLOAD,2023-01-23 01:20:00,15.08837395,0.0001277,53.2168,309.1547,61.8927,298.2194,0.0016872,0.00026664,0.0,0 STARLINK-4634,1 53967U 22125D   23023.05555987  .00026664  00000-0  16872-2 0  9996,2 53967  53.2168 309.1547 0001277  61.8927 298.2194 15.08837395 17042,6917.888000000001,95.438,540.637,538.87,0.0
53967.0,STARLINK-4634,PAYLOAD,2023-01-23 18:49:15,15.08856408,0.0002076,53.2162,305.8833,80.5895,279.5331,0.0020923,0.00033184,0.0,0 STARLINK-4634,1 53967U 22125D   23023.78420444  .00033184  00000-0  20923-2 0  9992,2 53967  53.2162 305.8833 0002076  80.5895 279.5331 15.08856408 17150,6917.83,95.437,541.131,538.259,0.0
53967.0,STARLINK-4634,PAYLOAD,2023-01-24 01:10:47,15.08854955,0.0001578,53.2174,304.6954,76.1548,283.962,0.0011703,0.00018394,0.0,0 STARLINK-4634,1 53967U 22125D   23024.04916162  .00018394  00000-0  11703-2 0  9991,2 53967  53.2174 304.6954 0001578  76.1548 283.9620 15.08854955 17195,6917.835,95.437,540.7909999999999,538.6080000000001,0.0
53967.0,STARLINK-4634,PAYLOAD,2023-01-24 04:21:33,15.08869156,0.000136,53.217,304.098,88.0415,272.0733,0.001391,0.00021937,0.0,0 STARLINK-4634,1 53967U 22125D   23024.18163676  .00021937  00000-0  13910-2 0  9999,2 53967  53.2170 304.0980 0001360  88.0415 272.0733 15.08869156 17214,6917.791,95.436,540.597,538.715,0.0
53967.0,STARLINK-4634,PAYLOAD,2023-01-25 01:01:33,15.08866721,0.0001204,53.2166,300.2344,70.2183,289.8939,0.0010087,0.00015814,0.0,0 STARLINK-4634,1 53967U 22125D   23025.04275329  .00015814  00000-0  10087-2 0  9993,2 53967  53.2166 300.2344 0001204  70.2183 289.8939 15.08866721 17346,6917.799,95.436,540.497,538.831,0.0
53967.0,STARLINK-4634,PAYLOAD,2023-01-26 00:52:21,15.08847203,0.0001099,53.2168,295.7726,95.1346,264.9771,0.0014107999999999,0.00022241,0.0,0 STARLINK-4634,1 53967U 22125D   23026.03635977  .00022241  00000-0  14108-2 0  9992,2 53967  53.2168 295.7726 0001099  95.1346 264.9771 15.08847203 17497,6917.858,95.437,540.484,538.9630000000001,0.0
53967.0,STARLINK-4634,PAYLOAD,2023-01-27 00:43:08,15.08811354,0.0001205999999999,53.2168,291.3112,82.55,277.5629,-0.00015456,-2.745e-05,0.0,0 STARLINK-4634,1 53967U 22125D   23027.02995920 -.00002745  00000-0 -15456-3 0  9996,2 53967  53.2168 291.3112 0001206  82.5500 277.5629 15.08811354 17647,6917.968000000001,95.439,540.6669999999999,538.999,0.0
53967.0,STARLINK-4634,PAYLOAD,2023-01-27 21:23:10,15.08835016,0.0001242999999999,53.2163,287.4462,85.6126,274.5009,0.0012936,0.00020357,0.0,0 STARLINK-4634,1 53967U 22125D   23027.89109253  .00020357  00000-0  12936-2 0  9993,2 53967  53.2163 287.4462 0001243  85.6126 274.5009 15.08835016 17702,6917.896,95.438,540.621,538.901,0.0
53967.0,STARLINK-4634,PAYLOAD,2023-01-28 02:09:19,15.08848636,0.0001248,53.2159,286.5547,90.3574,269.7561,0.0015079,0.00023797,0.0,0 STARLINK-4634,1 53967U 22125D   23028.08981136  .00023797  00000-0  15079-2 0  9995,2 53967  53.2159 286.5547 0001248  90.3574 269.7561 15.08848636 17808,6917.854,95.437,540.582,538.856,0.0
53967.0,STARLINK-4634,PAYLOAD,2023-01-28 03:44:42,15.08852362,0.0001233,53.2156,286.2576,94.0908,266.0225,0.0015037,0.00023732,0.0,0 STARLINK-4634,1 53967U 22125D   23028.15605057  .00023732  00000-0  15037-2 0  9991,2 53967  53.2156 286.2576 0001233  94.0908 266.0225 15.08852362 17741,6917.843,95.437,540.561,538.855,0.0
53967.0,STARLINK-4634,PAYLOAD,2023-01-28 19:38:33,15.08850152,0.0001359,53.2155,283.2817,109.8204,250.2935,0.00052919,8.146e-05,0.0,0 STARLINK-4634,1 53967U 22125D   23028.81844802  .00008146  00000-0  52919-3 0  9990,2 53967  53.2155 283.2817 0001359 109.8204 250.2935 15.08850152 17847,6917.849,95.437,540.654,538.774,0.0
53967.0,STARLINK-4634,PAYLOAD,2023-01-29 00:24:43,15.08856921,0.0001254,53.2153,282.3908,100.585,259.5283,0.00066502,0.00010317,0.0,0 STARLINK-4634,1 53967U 22125D   23029.01716619  .00010317  00000-0  66502-3 0  9993,2 53967  53.2153 282.3908 0001254 100.5850 259.5283 15.08856921 17944,6917.829,95.436,540.561,538.826,0.0
53967.0,STARLINK-4634,PAYLOAD,2023-01-29 22:40:07,15.08841812,0.0001299,53.2173,278.2231,98.2489,261.8651,0.00020052,2.905e-05,0.0,0 STARLINK-4634,1 53967U 22125D   23029.94452900  .00002905  00000-0  20052-3 0  9999,2 53967  53.2173 278.2231 0001299  98.2489 261.8651 15.08841812 18016,6917.875,95.437,540.638,538.841,0.0
53967.0,STARLINK-4634,PAYLOAD,2023-01-30 00:15:30,15.08841433,0.0001293,53.2171,277.9267,88.6122,271.5018,0.00024249,3.574e-05,0.0,0 STARLINK-4634,1 53967U 22125D   23030.01076966  .00003574  00000-0  24249-3 0  9998,2 53967  53.2171 277.9267 0001293  88.6122 271.5018 15.08841433 18092,6917.876,95.437,540.635,538.847,0.0
53967.0,STARLINK-4634,PAYLOAD,2023-01-30 22:30:54,15.0884666,0.0001311,53.2157,273.7665,86.634,273.4802,0.00034349,5.184e-05,0.0,0 STARLINK-4634,1 53967U 22125D   23030.93812894  .00005184  00000-0  34349-3 0  9998,2 53967  53.2157 273.7665 0001311  86.6340 273.4802 15.08846660 18160,6917.86,95.437,540.632,538.818,0.0
53967.0,STARLINK-4634,PAYLOAD,2023-01-31 01:41:40,15.08852499,0.0001331,53.2159,273.1714,84.1755,275.9388,0.00039655,6.031e-05,0.0,0 STARLINK-4634,1 53967U 22125D   23031.07060667  .00006031  00000-0  39655-3 0  9994,2 53967  53.2159 273.1714 0001331  84.1755 275.9388 15.08852499 18259,6917.842,95.437,540.628,538.786,0.0
53967.0,STARLINK-4634,PAYLOAD,2023-01-31 22:21:41,15.08849358,0.0001231,53.2158,269.3067,82.4666,277.6465,0.00025965,3.848e-05,0.0,0 STARLINK-4634,1 53967U 22125D   23031.93172611  .00003848  00000-0  25965-3 0  9994,2 53967  53.2158 269.3067 0001231  82.4666 277.6465 15.08849358 18319,6917.852,95.437,540.568,538.865,0.0
53967.0,STARLINK-4634,PAYLOAD,2023-02-01 01:32:27,15.08853292,0.0001292,53.2159,268.711,85.6944,274.4196,0.00034043,5.136e-05,0.0,0 STARLINK-4634,1 53967U 22125D   23032.06420439  .00005136  00000-0  34043-3 0  9992,2 53967  53.2159 268.7110 0001292  85.6944 274.4196 15.08853292 18401,6917.84,95.437,540.599,538.811,0.0
53967.0,STARLINK-4634,PAYLOAD,2023-02-01 11:04:46,15.08847359,0.0001682,53.2144,266.9297,82.19,277.9283,0.00016049,2.268e-05,0.0,0 STARLINK-4634,1 53967U 22125D   23032.46164497  .00002268  00000-0  16049-3 0  9994,2 53967  53.2144 266.9297 0001682  82.1900 277.9283 15.08847359 18466,6917.858,95.437,540.886,538.559,0.0
53967.0,STARLINK-4634,PAYLOAD,2023-02-01 12:40:09,15.08840019,0.0001463,53.2146,266.6299,86.0053,274.1107,-4.8459e-05,-1.059e-05,0.0,0 STARLINK-4634,1 53967U 22125D   23032.52788699 -.00001059  00000-0 -48459-4 0  9997,2 53967  53.2146 266.6299 0001463  86.0053 274.1107 15.08840019 18400,6917.88,95.438,540.757,538.733,0.0
53967.0,STARLINK-4634,PAYLOAD,2023-02-01 17:26:18,15.08841159,0.0001377,53.215,265.7382,86.6196,273.4954,-2.8537e-05,-7.42e-06,0.0,0 STARLINK-4634,1 53967U 22125D   23032.72660779 -.00000742  00000-0 -28537-4 0  9990,2 53967  53.2150 265.7382 0001377  86.6196 273.4954 15.08841159 18505,6917.877,95.437,540.694,538.789,0.0
53967.0,STARLINK-4634,PAYLOAD,2023-02-02 12:30:56,15.08837513,0.0001244,53.2156,262.1703,90.4895,269.624,4.9571e-05,5.01e-06,0.0,0 STARLINK-4634,1 53967U 22125D   23033.52148935  .00000501  00000-0  49571-4 0  9996,2 53967  53.2156 262.1703 0001244  90.4895 269.6240 15.08837513 18550,6917.888,95.438,540.614,538.892,0.0
53967.0,STARLINK-4634,PAYLOAD,2023-02-02 22:03:15,15.08841351,0.0001157,53.2159,260.3864,90.4569,269.6556,7.534e-05,9.11e-06,0.0,0 STARLINK-4634,1 53967U 22125D   23033.91892612  .00000911  00000-0  75340-4 0  9995,2 53967  53.2159 260.3864 0001157  90.4569 269.6556 15.08841351 18681,6917.876,95.437,540.542,538.941,0.0
